[Satellite]
VERSION=1.1
NAME=COSMOS 2492 (754)
NICKNAME=COSMOS 2492 (754)
TLE1=1 39620U 14012A   18020.82766866 -.00000011  00000-0  10000-3 0  9995
TLE2=2 39620  65.3992  57.2410 0015435 323.3446 334.7562  2.13103384 29824
